start=new Date('2022-12-05T00:00:00.000Z').valueOf();
sats=[{"TIME_SYSTEM":"UTC","INCLINATION":"53.2158","APOAPSIS":"541.952","EPOCH":"2022-12-04T14:51:06.726240","MEAN_MOTION":"15.08836785","MEAN_ANOMALY":"319.7538","REV_AT_EPOCH":"5698","GP_ID":"219521606","FILE":"3681207","PERIOD":"95.438","ELEMENT_SET_NO":"999","OBJECT_ID":"2021-125AZ","NORAD_CAT_ID":"50203","DECAY_DATE":null,"TLE_LINE1":"1 50203U 21125AZ  22338.61882785  .00000307  00000-0  37449-4 0  9995","OBJECT_NAME":"STARLINK-3257","EPHEMERIS_TYPE":"0","SEMIMAJOR_AXIS":"6917.890","SITE":"AFWTR","TLE_LINE2":"2 50203  53.2158 186.0612 0003176  40.3689 319.7538 15.08836785 56982","CENTER_NAME":"EARTH","MEAN_MOTION_DOT":"0.00000307","REF_FRAME":"TEME","BSTAR":"0.00003744900000","RA_OF_ASC_NODE":"186.0612","PERIAPSIS":"537.558","ARG_OF_PERICENTER":"40.3689","COUNTRY_CODE":"US","ECCENTRICITY":"0.00031760","CLASSIFICATION_TYPE":"U","RCS_SIZE":"LARGE","OBJECT_TYPE":"PAYLOAD","LAUNCH_DATE":"2021-12-18","MEAN_MOTION_DDOT":"0.0000000000000","MEAN_ELEMENT_THEORY":"SGP4"},{"RA_OF_ASC_NODE":"188.8168","BSTAR":"0.00006215900000","COUNTRY_CODE":"US","PERIAPSIS":"537.768","ARG_OF_PERICENTER":"40.0596","SEMIMAJOR_AXIS":"6917.863","SITE":"AFWTR","TLE_LINE2":"2 50204  53.2153 188.8168 0002833  40.0596 320.0605 15.08845672 56881","REF_FRAME":"TEME","CENTER_NAME":"EARTH","MEAN_MOTION_DOT":"0.00000701","LAUNCH_DATE":"2021-12-18","MEAN_ELEMENT_THEORY":"SGP4","MEAN_MOTION_DDOT":"0.0000000000000","OBJECT_TYPE":"PAYLOAD","ECCENTRICITY":"0.00028330","RCS_SIZE":"LARGE","CLASSIFICATION_TYPE":"U","MEAN_ANOMALY":"320.0605","REV_AT_EPOCH":"5688","FILE":"3681207","GP_ID":"219521856","TIME_SYSTEM":"UTC","INCLINATION":"53.2153","APOAPSIS":"541.688","EPOCH":"2022-12-04T00:06:08.204832","MEAN_MOTION":"15.08845672","OBJECT_NAME":"STARLINK-3254","DECAY_DATE":null,"TLE_LINE1":"1 50204U 21125BA  22338.00426163  .00000701  00000-0  62159-4 0  9997","EPHEMERIS_TYPE":"0","OBJECT_ID":"2021-125BA","PERIOD":"95.437","ELEMENT_SET_NO":"999","NORAD_CAT_ID":"50204"},{"REF_FRAME":"TEME","CENTER_NAME":"EARTH","MEAN_MOTION_DOT":"0.00006869","SEMIMAJOR_AXIS":"6917.882","TLE_LINE2":"2 50205  53.2168 155.8044 0003191  46.6274 313.4984 15.08839328 57358","SITE":"AFWTR","COUNTRY_CODE":"US","PERIAPSIS":"537.540","ARG_OF_PERICENTER":"46.6274","RA_OF_ASC_NODE":"155.8044","BSTAR":"0.00044929000000","OBJECT_TYPE":"PAYLOAD","ECCENTRICITY":"0.00031910","CLASSIFICATION_TYPE":"U","RCS_SIZE":"LARGE","MEAN_ELEMENT_THEORY":"SGP4","MEAN_MOTION_DDOT":"0.0000000000000","LAUNCH_DATE":"2021-12-18","MEAN_MOTION":"15.08839328","INCLINATION":"53.2168","TIME_SYSTEM":"UTC","APOAPSIS":"541.955","EPOCH":"2022-12-04T16:10:41.669760","FILE":"3681494","GP_ID":"219554538","MEAN_ANOMALY":"313.4984","REV_AT_EPOCH":"5735","NORAD_CAT_ID":"50205","OBJECT_ID":"2021-125BB","PERIOD":"95.438","ELEMENT_SET_NO":"999","EPHEMERIS_TYPE":"0","OBJECT_NAME":"STARLINK-3260","DECAY_DATE":null,"TLE_LINE1":"1 50205U 21125BB  22338.67409340  .00006869  00000-0  44929-3 0  9994"},{"MEAN_ELEMENT_THEORY":"SGP4","MEAN_MOTION_DDOT":"0.0000000000000","LAUNCH_DATE":"2021-12-18","CLASSIFICATION_TYPE":"U","RCS_SIZE":"LARGE","ECCENTRICITY":"0.00035210","OBJECT_TYPE":"PAYLOAD","ARG_OF_PERICENTER":"36.7840","PERIAPSIS":"537.311","COUNTRY_CODE":"US","BSTAR":"-0.00001861300000","RA_OF_ASC_NODE":"186.1270","MEAN_MOTION_DOT":"-0.00000585","CENTER_NAME":"EARTH","REF_FRAME":"TEME","SITE":"AFWTR","TLE_LINE2":"2 50206  53.2163 186.1270 0003521  36.7840 323.3393 15.08839611 54848","SEMIMAJOR_AXIS":"6917.882","EPHEMERIS_TYPE":"0","TLE_LINE1":"1 50206U 21125BC  22338.60410411 -.00000585  00000-0 -18613-4 0  9992","DECAY_DATE":null,"OBJECT_NAME":"STARLINK-3258","NORAD_CAT_ID":"50206","ELEMENT_SET_NO":"999","PERIOD":"95.438","OBJECT_ID":"2021-125BC","GP_ID":"219554789","FILE":"3681494","REV_AT_EPOCH":"5484","MEAN_ANOMALY":"323.3393","MEAN_MOTION":"15.08839611","EPOCH":"2022-12-04T14:29:54.595104","APOAPSIS":"542.182","INCLINATION":"53.2163","TIME_SYSTEM":"UTC"},{"LAUNCH_DATE":"2021-12-18","MEAN_MOTION_DDOT":"0.0000000000000","MEAN_ELEMENT_THEORY":"SGP4","CLASSIFICATION_TYPE":"U","RCS_SIZE":"LARGE","ECCENTRICITY":"0.00033570","OBJECT_TYPE":"PAYLOAD","BSTAR":"0.00000277830000","RA_OF_ASC_NODE":"187.5917","ARG_OF_PERICENTER":"38.2852","PERIAPSIS":"537.433","COUNTRY_CODE":"US","SITE":"AFWTR","TLE_LINE2":"2 50207  53.2140 187.5917 0003357  38.2852 321.8378 15.08836646 54867","SEMIMAJOR_AXIS":"6917.891","MEAN_MOTION_DOT":"-0.00000245","CENTER_NAME":"EARTH","REF_FRAME":"TEME","TLE_LINE1":"1 50207U 21125BD  22338.27658623 -.00000245  00000-0  27783-5 0  9996","DECAY_DATE":null,"OBJECT_NAME":"STARLINK-3262","EPHEMERIS_TYPE":"0","ELEMENT_SET_NO":"999","PERIOD":"95.438","OBJECT_ID":"2021-125BD","NORAD_CAT_ID":"50207","REV_AT_EPOCH":"5486","MEAN_ANOMALY":"321.8378","GP_ID":"219521106","FILE":"3681207","APOAPSIS":"542.078","EPOCH":"2022-12-04T06:38:17.050272","TIME_SYSTEM":"UTC","INCLINATION":"53.2140","MEAN_MOTION":"15.08836646"},{"GP_ID":"219555804","FILE":"3681494","REV_AT_EPOCH":"5062","MEAN_ANOMALY":"307.9035","MEAN_MOTION":"15.08851853","APOAPSIS":"541.621","EPOCH":"2022-12-04T18:58:50.414592","TIME_SYSTEM":"UTC","INCLINATION":"53.2182","EPHEMERIS_TYPE":"0","TLE_LINE1":"1 50803U 22001A   22338.79086128  .00001350  00000-0  10287-3 0  9990","DECAY_DATE":null,"OBJECT_NAME":"STARLINK-3321","NORAD_CAT_ID":"50803","ELEMENT_SET_NO":"999","PERIOD":"95.437","OBJECT_ID":"2022-001A","ARG_OF_PERICENTER":"52.2207","PERIAPSIS":"537.797","COUNTRY_CODE":"US","BSTAR":"0.00010287000000","RA_OF_ASC_NODE":"115.2761","MEAN_MOTION_DOT":"0.00001350","CENTER_NAME":"EARTH","REF_FRAME":"TEME","SITE":"AFETR","TLE_LINE2":"2 50803  53.2182 115.2761 0002764  52.2207 307.9035 15.08851853 50623","SEMIMAJOR_AXIS":"6917.844","MEAN_ELEMENT_THEORY":"SGP4","MEAN_MOTION_DDOT":"0.0000000000000","LAUNCH_DATE":"2022-01-06","CLASSIFICATION_TYPE":"U","RCS_SIZE":"LARGE","ECCENTRICITY":"0.00027640","OBJECT_TYPE":"PAYLOAD"},{"FILE":"3681494","GP_ID":"219554060","MEAN_ANOMALY":"322.0108","REV_AT_EPOCH":"5076","MEAN_MOTION":"15.08843206","TIME_SYSTEM":"UTC","INCLINATION":"53.2174","APOAPSIS":"541.143","EPOCH":"2022-12-04T19:47:51.478368","EPHEMERIS_TYPE":"0","OBJECT_NAME":"STARLINK-3323","DECAY_DATE":null,"TLE_LINE1":"1 50804U 22001B   22338.82490137  .00001007  00000-0  81354-4 0  9997","NORAD_CAT_ID":"50804","OBJECT_ID":"2022-001B","PERIOD":"95.437","ELEMENT_SET_NO":"999","COUNTRY_CODE":"US","PERIAPSIS":"538.328","ARG_OF_PERICENTER":"38.1027","RA_OF_ASC_NODE":"105.1362","BSTAR":"0.00008135400000","REF_FRAME":"TEME","CENTER_NAME":"EARTH","MEAN_MOTION_DOT":"0.00001007","SEMIMAJOR_AXIS":"6917.871","TLE_LINE2":"2 50804  53.2174 105.1362 0002034  38.1027 322.0108 15.08843206 50760","SITE":"AFETR","MEAN_ELEMENT_THEORY":"SGP4","MEAN_MOTION_DDOT":"0.0000000000000","LAUNCH_DATE":"2022-01-06","OBJECT_TYPE":"PAYLOAD","ECCENTRICITY":"0.00020340","RCS_SIZE":"LARGE","CLASSIFICATION_TYPE":"U"},{"MEAN_ANOMALY":"316.6976","REV_AT_EPOCH":"5076","FILE":"3681494","GP_ID":"219554311","TIME_SYSTEM":"UTC","INCLINATION":"53.2184","EPOCH":"2022-12-04T19:42:33.945408","APOAPSIS":"541.170","MEAN_MOTION":"15.08837960","OBJECT_NAME":"STARLINK-3333","DECAY_DATE":null,"TLE_LINE1":"1 50805U 22001C   22338.82122622  .00001221  00000-0  94794-4 0  9999","EPHEMERIS_TYPE":"0","OBJECT_ID":"2022-001C","PERIOD":"95.438","ELEMENT_SET_NO":"999","NORAD_CAT_ID":"50805","RA_OF_ASC_NODE":"105.1488","BSTAR":"0.00009479400000","COUNTRY_CODE":"US","PERIAPSIS":"538.333","ARG_OF_PERICENTER":"43.4178","SEMIMAJOR_AXIS":"6917.887","TLE_LINE2":"2 50805  53.2184 105.1488 0002050  43.4178 316.6976 15.08837960 50767","SITE":"AFETR","REF_FRAME":"TEME","CENTER_NAME":"EARTH","MEAN_MOTION_DOT":"0.00001221","LAUNCH_DATE":"2022-01-06","MEAN_MOTION_DDOT":"0.0000000000000","MEAN_ELEMENT_THEORY":"SGP4","OBJECT_TYPE":"PAYLOAD","ECCENTRICITY":"0.00020500","RCS_SIZE":"LARGE","CLASSIFICATION_TYPE":"U"},{"FILE":"3681494","GP_ID":"219555064","REV_AT_EPOCH":"5076","MEAN_ANOMALY":"310.0915","MEAN_MOTION":"15.08838848","APOAPSIS":"541.352","EPOCH":"2022-12-04T19:37:16.150656","INCLINATION":"53.2177","TIME_SYSTEM":"UTC","EPHEMERIS_TYPE":"0","OBJECT_NAME":"STARLINK-3335","TLE_LINE1":"1 50806U 22001D   22338.81754804  .00001093  00000-0  86792-4 0  9998","DECAY_DATE":null,"NORAD_CAT_ID":"50806","OBJECT_ID":"2022-001D","ELEMENT_SET_NO":"999","PERIOD":"95.438","COUNTRY_CODE":"US","ARG_OF_PERICENTER":"50.0280","PERIAPSIS":"538.146","RA_OF_ASC_NODE":"105.1415","BSTAR":"0.00008679200000","REF_FRAME":"TEME","MEAN_MOTION_DOT":"0.00001093","CENTER_NAME":"EARTH","SITE":"AFETR","TLE_LINE2":"2 50806  53.2177 105.1415 0002317  50.0280 310.0915 15.08838848 50761","SEMIMAJOR_AXIS":"6917.884","MEAN_ELEMENT_THEORY":"SGP4","MEAN_MOTION_DDOT":"0.0000000000000","LAUNCH_DATE":"2022-01-06","OBJECT_TYPE":"PAYLOAD","CLASSIFICATION_TYPE":"U","RCS_SIZE":"LARGE","ECCENTRICITY":"0.00023170"},{"RA_OF_ASC_NODE":"105.8278","BSTAR":"0.00012632000000","COUNTRY_CODE":"US","PERIAPSIS":"538.206","ARG_OF_PERICENTER":"36.9839","SEMIMAJOR_AXIS":"6917.894","TLE_LINE2":"2 50807  53.2166 105.8278 0002244  36.9839 323.1307 15.08835621 50740","SITE":"AFETR","REF_FRAME":"TEME","CENTER_NAME":"EARTH","MEAN_MOTION_DOT":"0.00001722","LAUNCH_DATE":"2022-01-06","MEAN_ELEMENT_THEORY":"SGP4","MEAN_MOTION_DDOT":"0.0000000000000","OBJECT_TYPE":"PAYLOAD","ECCENTRICITY":"0.00022440","RCS_SIZE":"LARGE","CLASSIFICATION_TYPE":"U","MEAN_ANOMALY":"323.1307","REV_AT_EPOCH":"5074","FILE":"3681494","GP_ID":"219555305","INCLINATION":"53.2166","TIME_SYSTEM":"UTC","APOAPSIS":"541.311","EPOCH":"2022-12-04T16:05:17.605824","MEAN_MOTION":"15.08835621","OBJECT_NAME":"STARLINK-3353","DECAY_DATE":null,"TLE_LINE1":"1 50807U 22001E   22338.67034266  .00001722  00000-0  12632-3 0  9996","EPHEMERIS_TYPE":"0","OBJECT_ID":"2022-001E","PERIOD":"95.438","ELEMENT_SET_NO":"999","NORAD_CAT_ID":"50807"}];
